[{"OBJECT_NAME":"STARLINK-32259","OBJECT_ID":"2024-155P","EPOCH":"2026-03-09T11:05:03.865056","MEAN_MOTION":15.30184006,"ECCENTRICITY":0.00011835,"INCLINATION":53.1608,"RA_OF_ASC_NODE":130.8932,"ARG_OF_PERICENTER":80.5241,"MEAN_ANOMALY":279.5894,"EPHEMERIS_TYPE":0,"CLASSIFICATION_TYPE":"U","NORAD_CAT_ID":60937,"ELEMENT_SET_NO":999,"REV_AT_EPOCH":8630,"BSTAR":-7.598145e-6,"MEAN_MOTION_DOT":-5.84e-6,"MEAN_MOTION_DDOT":0},{"OBJECT_NAME":"239ALFEROV (RS61S)","OBJECT_ID":"2025-155F","EPOCH":"2026-03-09T21:46:33.382848","MEAN_MOTION":15.29933217,"ECCENTRICITY":0.00084878,"INCLINATION":97.4469,"RA_OF_ASC_NODE":37.6373,"ARG_OF_PERICENTER":151.5904,"MEAN_ANOMALY":208.58,"EPHEMERIS_TYPE":0,"CLASSIFICATION_TYPE":"U","NORAD_CAT_ID":64881,"ELEMENT_SET_NO":999,"REV_AT_EPOCH":6561,"BSTAR":0.00067233359,"MEAN_MOTION_DOT":0.00019457,"MEAN_MOTION_DDOT":0}]
